IRIDIUM 155             
1 43573U 18061E   21259.73549501  .00000013  00000-0 -25399-5 0  9999
2 43573  86.3938  61.5392 0001516  92.5369 267.6000 14.34216919164758
IRIDIUM 154             
1 43574U 18061F   21259.85599958  .00000005  00000-0 -53436-5 0  9998
2 43574  86.3942  61.5396 0002219  86.8003 273.3446 14.34216949164829
IRIDIUM 163             
1 43575U 18061G   21259.69741468  .00000011  00000-0 -30482-5 0  9999
2 43575  86.3939  61.5742 0002344 100.9723 259.1737 14.34216625164777
IRIDIUM 156             
1 43576U 18061H   21259.39297100  .00000004  00000-0 -55361-5 0  9991
2 43576  86.3938  61.7066 0001919 101.6756 258.4655 14.34218281164725
IRIDIUM 164             
1 43577U 18061J   21259.72280616  .00000004  00000-0 -57791-5 0  9992
2 43577  86.3940  61.5826 0002240  90.3244 269.8208 14.34216710164810
IRIDIUM 159             
1 43578U 18061K   21259.69111405  .00000008  00000-0 -42617-5 0  9993
2 43578  86.3939  61.5692 0002171  88.5071 271.6373 14.34216638164778
IRIDIUM 180             
1 43922U 19002A   21259.69059127  .00000081  00000-0  21827-4 0  9993
2 43922  86.4027 358.4485 0003112  89.9537 270.2015 14.34217317140380
IRIDIUM 176             
1 43923U 19002B   21259.82703041  .00000187  00000-0  25707-4 0  9998
2 43923  86.6160 358.4255 0002380  92.9951 267.1538 14.72254473144077
IRIDIUM 168             
1 43924U 19002C   21259.68424056  .00000078  00000-0  20642-4 0  9991
2 43924  86.4029 358.4793 0002420  89.9133 270.2340 14.34219739140368
IRIDIUM 173             
1 43925U 19002D   21259.67156070  .00000077  00000-0  20539-4 0  9993
2 43925  86.4026 358.4442 0002405  92.9753 267.1718 14.34219518140349
IRIDIUM 169             
1 43926U 19002E   21259.87909923  .00000102  00000-0  26715-4 0  9990
2 43926  86.4258  29.9333 0002918 305.2588  54.8337 14.38605273140889
IRIDIUM 172             
1 43927U 19002F   21259.80475517  .00000076  00000-0  20089-4 0  9999
2 43927  86.4027 358.3913 0002479  91.8955 268.2525 14.34216599140374
IRIDIUM 175             
1 43928U 19002G   21259.54897896  .00000033  00000-0  13736-5 0  9994
2 43928  86.6161 358.3639 0002823  99.5769 260.5767 14.72251426144021
IRIDIUM 171             
1 43929U 19002H   21259.57642842  .00000075  00000-0  19759-4 0  9993
2 43929  86.4036 358.6001 0002392  89.8302 270.3167 14.34219335140337
IRIDIUM 170             
1 43930U 19002J   21259.35743549  .00000200  00000-0  27818-4 0  9992
2 43930  86.6159 358.6275 0002594  91.3014 268.8500 14.72257919144016
IRIDIUM 167             
1 43931U 19002K   21259.57006639  .00000073  00000-0  19085-4 0  9994
2 43931  86.4027 358.4962 0002880  89.2318 270.9208 14.34215826140330
